[{"OBJECT_NAME":"STARLINK-34967","OBJECT_ID":"2025-175D","EPOCH":"2026-03-09T14:27:26.539200","MEAN_MOTION":15.05636344,"ECCENTRICITY":0.0001791,"INCLINATION":97.6027,"RA_OF_ASC_NODE":302.5138,"ARG_OF_PERICENTER":82.5873,"MEAN_ANOMALY":277.5557,"EPHEMERIS_TYPE":0,"CLASSIFICATION_TYPE":"U","NORAD_CAT_ID":65177,"ELEMENT_SET_NO":999,"REV_AT_EPOCH":3262,"BSTAR":-0.00019633,"MEAN_MOTION_DOT":-2.892e-5,"MEAN_MOTION_DDOT":0},{"OBJECT_NAME":"CZ-6A DEB","OBJECT_ID":"2022-151AAS","EPOCH":"2026-03-09T03:45:24.122016","MEAN_MOTION":15.06999256,"ECCENTRICITY":0.00393195,"INCLINATION":98.6364,"RA_OF_ASC_NODE":147.7741,"ARG_OF_PERICENTER":181.1546,"MEAN_ANOMALY":178.9594,"EPHEMERIS_TYPE":0,"CLASSIFICATION_TYPE":"U","NORAD_CAT_ID":55894,"ELEMENT_SET_NO":999,"REV_AT_EPOCH":17150,"BSTAR":0.0072812999,"MEAN_MOTION_DOT":0.00112507,"MEAN_MOTION_DDOT":0}]
